[{"OBJECT_NAME":"XM-5","OBJECT_ID":"2010-053A","EPOCH":"2026-03-06T13:24:37.639872","MEAN_MOTION":1.0027094,"ECCENTRICITY":0.00035696,"INCLINATION":0.0668,"RA_OF_ASC_NODE":273.7447,"ARG_OF_PERICENTER":252.7855,"MEAN_ANOMALY":83.6924,"EPHEMERIS_TYPE":0,"CLASSIFICATION_TYPE":"U","NORAD_CAT_ID":37185,"ELEMENT_SET_NO":999,"REV_AT_EPOCH":5645,"BSTAR":0,"MEAN_MOTION_DOT":-2.7e-7,"MEAN_MOTION_DDOT":0},{"OBJECT_NAME":"BSAT-3B","OBJECT_ID":"2010-056B","EPOCH":"2026-03-06T15:07:51.203136","MEAN_MOTION":1.00272992,"ECCENTRICITY":0.00017757,"INCLINATION":0.0794,"RA_OF_ASC_NODE":246.3173,"ARG_OF_PERICENTER":35.5753,"MEAN_ANOMALY":219.2506,"EPHEMERIS_TYPE":0,"CLASSIFICATION_TYPE":"U","NORAD_CAT_ID":37207,"ELEMENT_SET_NO":999,"REV_AT_EPOCH":5107,"BSTAR":0,"MEAN_MOTION_DOT":-3.54e-6,"MEAN_MOTION_DDOT":0},{"OBJECT_NAME":"BEIDOU-2 G4","OBJECT_ID":"2010-057A","EPOCH":"2026-03-06T19:51:08.079840","MEAN_MOTION":1.0027242,"ECCENTRICITY":0.0008762,"INCLINATION":3.3928,"RA_OF_ASC_NODE":69.5393,"ARG_OF_PERICENTER":211.9137,"MEAN_ANOMALY":340.8851,"EPHEMERIS_TYPE":0,"CLASSIFICATION_TYPE":"U","NORAD_CAT_ID":37210,"ELEMENT_SET_NO":999,"REV_AT_EPOCH":5626,"BSTAR":0,"MEAN_MOTION_DOT":-1.14e-6,"MEAN_MOTION_DDOT":0},{"OBJECT_NAME":"SKYTERRA 1","OBJECT_ID":"2010-061A","EPOCH":"2026-03-06T13:28:29.769888","MEAN_MOTION":1.00272913,"ECCENTRICITY":0.00015506,"INCLINATION":4.9068,"RA_OF_ASC_NODE":50.9124,"ARG_OF_PERICENTER":303.7078,"MEAN_ANOMALY":270.452,"EPHEMERIS_TYPE":0,"CLASSIFICATION_TYPE":"U","NORAD_CAT_ID":37218,"ELEMENT_SET_NO":999,"REV_AT_EPOCH":5616,"BSTAR":0,"MEAN_MOTION_DOT":-1.21e-6,"MEAN_MOTION_DDOT":0},{"OBJECT_NAME":"HYLAS 1","OBJECT_ID":"2010-065A","EPOCH":"2026-03-06T19:06:19.876032","MEAN_MOTION":1.00650856,"ECCENTRICITY":0.0003309,"INCLINATION":5.3835,"RA_OF_ASC_NODE":74.2755,"ARG_OF_PERICENTER":332.6761,"MEAN_ANOMALY":46.7309,"EPHEMERIS_TYPE":0,"CLASSIFICATION_TYPE":"U","NORAD_CAT_ID":37237,"ELEMENT_SET_NO":999,"REV_AT_EPOCH":586,"BSTAR":0,"MEAN_MOTION_DOT":7.1e-7,"MEAN_MOTION_DDOT":0},{"OBJECT_NAME":"INTELSAT 17 (IS-17)","OBJECT_ID":"2010-065B","EPOCH":"2026-03-06T14:16:17.685696","MEAN_MOTION":1.00272934,"ECCENTRICITY":0.00024852,"INCLINATION":0.0162,"RA_OF_ASC_NODE":180.173,"ARG_OF_PERICENTER":170.8958,"MEAN_ANOMALY":93.3048,"EPHEMERIS_TYPE":0,"CLASSIFICATION_TYPE":"U","NORAD_CAT_ID":37238,"ELEMENT_SET_NO":999,"REV_AT_EPOCH":5221,"BSTAR":0,"MEAN_MOTION_DOT":-5.0e-8,"MEAN_MOTION_DDOT":0},{"OBJECT_NAME":"EUTELSAT KA-SAT 9A","OBJECT_ID":"2010-069A","EPOCH":"2026-03-06T08:51:56.954016","MEAN_MOTION":1.00271346,"ECCENTRICITY":0.00025992,"INCLINATION":0.0575,"RA_OF_ASC_NODE":355.3085,"ARG_OF_PERICENTER":151.5415,"MEAN_ANOMALY":159.2287,"EPHEMERIS_TYPE":0,"CLASSIFICATION_TYPE":"U","NORAD_CAT_ID":37258,"ELEMENT_SET_NO":999,"REV_AT_EPOCH":4297,"BSTAR":0,"MEAN_MOTION_DOT":5.7e-7,"MEAN_MOTION_DDOT":0},{"OBJECT_NAME":"HISPASAT 30W-5","OBJECT_ID":"2010-070A","EPOCH":"2026-03-06T14:48:04.271904","MEAN_MOTION":1.00273296,"ECCENTRICITY":0.00033589,"INCLINATION":0.016,"RA_OF_ASC_NODE":149.8564,"ARG_OF_PERICENTER":216.7864,"MEAN_ANOMALY":349.6986,"EPHEMERIS_TYPE":0,"CLASSIFICATION_TYPE":"U","NORAD_CAT_ID":37264,"ELEMENT_SET_NO":999,"REV_AT_EPOCH":5215,"BSTAR":0,"MEAN_MOTION_DOT":-2.2e-6,"MEAN_MOTION_DDOT":0},{"OBJECT_NAME":"KOREASAT 6","OBJECT_ID":"2010-070B","EPOCH":"2026-03-06T18:39:38.672352","MEAN_MOTION":1.00272923,"ECCENTRICITY":0.0002263,"INCLINATION":0.0247,"RA_OF_ASC_NODE":246.7267,"ARG_OF_PERICENTER":87.6607,"MEAN_ANOMALY":269.8751,"EPHEMERIS_TYPE":0,"CLASSIFICATION_TYPE":"U","NORAD_CAT_ID":37265,"ELEMENT_SET_NO":999,"REV_AT_EPOCH":5574,"BSTAR":0,"MEAN_MOTION_DOT":-1.15e-6,"MEAN_MOTION_DDOT":0},{"OBJECT_NAME":"ELEKTRO-L 1 (GOMS 2)","OBJECT_ID":"2011-001A","EPOCH":"2026-03-06T10:11:56.783328","MEAN_MOTION":1.00173969,"ECCENTRICITY":0.00034584,"INCLINATION":9.4537,"RA_OF_ASC_NODE":55.536,"ARG_OF_PERICENTER":10.6983,"MEAN_ANOMALY":180.3786,"EPHEMERIS_TYPE":0,"CLASSIFICATION_TYPE":"U","NORAD_CAT_ID":37344,"ELEMENT_SET_NO":999,"REV_AT_EPOCH":5545,"BSTAR":0,"MEAN_MOTION_DOT":-2.64e-6,"MEAN_MOTION_DDOT":0},{"OBJECT_NAME":"BEIDOU-2 IGSO-3","OBJECT_ID":"2011-013A","EPOCH":"2026-02-27T21:48:44.352288","MEAN_MOTION":1.00294022,"ECCENTRICITY":0.00350296,"INCLINATION":62.2642,"RA_OF_ASC_NODE":41.1818,"ARG_OF_PERICENTER":190.8154,"MEAN_ANOMALY":358.7681,"EPHEMERIS_TYPE":0,"CLASSIFICATION_TYPE":"U","NORAD_CAT_ID":37384,"ELEMENT_SET_NO":999,"REV_AT_EPOCH":5456,"BSTAR":0,"MEAN_MOTION_DOT":-1.54e-6,"MEAN_MOTION_DDOT":0},{"OBJECT_NAME":"INTELSAT 28 (IS-28)","OBJECT_ID":"2011-016A","EPOCH":"2026-03-06T10:40:38.622144","MEAN_MOTION":1.00272008,"ECCENTRICITY":0.00046212,"INCLINATION":1.5405,"RA_OF_ASC_NODE":83.9567,"ARG_OF_PERICENTER":262.0273,"MEAN_ANOMALY":306.6316,"EPHEMERIS_TYPE":0,"CLASSIFICATION_TYPE":"U","NORAD_CAT_ID":37392,"ELEMENT_SET_NO":999,"REV_AT_EPOCH":5225,"BSTAR":0,"MEAN_MOTION_DOT":-2.29e-6,"MEAN_MOTION_DDOT":0},{"OBJECT_NAME":"YAHSAT 1A","OBJECT_ID":"2011-016B","EPOCH":"2026-03-06T14:12:25.557408","MEAN_MOTION":1.00271304,"ECCENTRICITY":0.0003737,"INCLINATION":0.0051,"RA_OF_ASC_NODE":140.8631,"ARG_OF_PERICENTER":214.1431,"MEAN_ANOMALY":74.891,"EPHEMERIS_TYPE":0,"CLASSIFICATION_TYPE":"U","NORAD_CAT_ID":37393,"ELEMENT_SET_NO":999,"REV_AT_EPOCH":4137,"BSTAR":0,"MEAN_MOTION_DOT":9.7e-7,"MEAN_MOTION_DDOT":0},{"OBJECT_NAME":"SBIRS GEO-1 (USA 230)","OBJECT_ID":"2011-019A","EPOCH":"2026-03-06T03:56:02.827104","MEAN_MOTION":1.00272541,"ECCENTRICITY":0.00023224,"INCLINATION":4.3097,"RA_OF_ASC_NODE":53.0939,"ARG_OF_PERICENTER":290.7052,"MEAN_ANOMALY":290.9016,"EPHEMERIS_TYPE":0,"CLASSIFICATION_TYPE":"U","NORAD_CAT_ID":37481,"ELEMENT_SET_NO":999,"REV_AT_EPOCH":5436,"BSTAR":0,"MEAN_MOTION_DOT":9.6e-7,"MEAN_MOTION_DDOT":0},{"OBJECT_NAME":"TELSTAR 14R","OBJECT_ID":"2011-021A","EPOCH":"2026-03-06T18:47:29.184288","MEAN_MOTION":1.00272494,"ECCENTRICITY":0.0002392,"INCLINATION":0.0234,"RA_OF_ASC_NODE":249.8663,"ARG_OF_PERICENTER":104.4855,"MEAN_ANOMALY":29.014,"EPHEMERIS_TYPE":0,"CLASSIFICATION_TYPE":"U","NORAD_CAT_ID":37602,"ELEMENT_SET_NO":999,"REV_AT_EPOCH":5480,"BSTAR":0,"MEAN_MOTION_DOT":-2.83e-6,"MEAN_MOTION_DDOT":0},{"OBJECT_NAME":"GSAT-8","OBJECT_ID":"2011-022A","EPOCH":"2026-03-06T19:21:18.440352","MEAN_MOTION":1.00273406,"ECCENTRICITY":0.000714,"INCLINATION":1.8663,"RA_OF_ASC_NODE":83.1264,"ARG_OF_PERICENTER":216.5939,"MEAN_ANOMALY":210.1807,"EPHEMERIS_TYPE":0,"CLASSIFICATION_TYPE":"U","NORAD_CAT_ID":37605,"ELEMENT_SET_NO":999,"REV_AT_EPOCH":5219,"BSTAR":0,"MEAN_MOTION_DOT":8.2e-7,"MEAN_MOTION_DDOT":0},{"OBJECT_NAME":"ST-2","OBJECT_ID":"2011-022B","EPOCH":"2026-03-06T19:30:40.042080","MEAN_MOTION":1.00274046,"ECCENTRICITY":0.0001791,"INCLINATION":0.0129,"RA_OF_ASC_NODE":213.3849,"ARG_OF_PERICENTER":143.5372,"MEAN_ANOMALY":188.2571,"EPHEMERIS_TYPE":0,"CLASSIFICATION_TYPE":"U","NORAD_CAT_ID":37606,"ELEMENT_SET_NO":999,"REV_AT_EPOCH":5425,"BSTAR":0,"MEAN_MOTION_DOT":-2.15e-6,"MEAN_MOTION_DDOT":0}]
