XM-5                    
1 37185U 10053A   26065.55876898 -.00000027  00000+0  00000+0 0  9996
2 37185   0.0668 273.7447 0003569 252.7855  83.6924  1.00270940 56452
BSAT-3B                 
1 37207U 10056B   26065.63045374 -.00000354  00000+0  00000+0 0  9993
2 37207   0.0794 246.3173 0001775  35.5753 219.2506  1.00272992 51075
BEIDOU-2 G4             
1 37210U 10057A   26065.82717685 -.00000114  00000+0  00000+0 0  9994
2 37210   3.3928  69.5393 0008762 211.9137 340.8851  1.00272420 56268
SKYTERRA 1              
1 37218U 10061A   26065.56145567 -.00000121  00000+0  00000+0 0  9990
2 37218   4.9068  50.9124 0001550 303.7078 270.4520  1.00272913 56163
HYLAS 1                 
1 37237U 10065A   26065.79606338  .00000071  00000+0  00000+0 0  9991
2 37237   5.3835  74.2755 0003309 332.6761  46.7309  1.00650856  5860
INTELSAT 17 (IS-17)     
1 37238U 10065B   26065.59464914 -.00000005  00000+0  00000+0 0  9990
2 37238   0.0162 180.1730 0002485 170.8958  93.3048  1.00272934 52216
EUTELSAT KA-SAT 9A      
1 37258U 10069A   26065.36940919  .00000057  00000+0  00000+0 0  9991
2 37258   0.0575 355.3085 0002599 151.5415 159.2287  1.00271346 42970
HISPASAT 30W-5          
1 37264U 10070A   26065.61671611 -.00000220  00000+0  00000+0 0  9991
2 37264   0.0160 149.8564 0003358 216.7864 349.6986  1.00273296 52159
KOREASAT 6              
1 37265U 10070B   26065.77753093 -.00000115  00000+0  00000+0 0  9997
2 37265   0.0247 246.7267 0002263  87.6607 269.8751  1.00272923 55744
ELEKTRO-L 1 (GOMS 2)    
1 37344U 11001A   26065.42496277 -.00000264  00000+0  00000+0 0  9995
2 37344   9.4537  55.5360 0003458  10.6983 180.3786  1.00173969 55450
BEIDOU-2 IGSO-3         
1 37384U 11013A   26058.90884667 -.00000154  00000+0  00000+0 0  9999
2 37384  62.2642  41.1818 0035029 190.8154 358.7681  1.00294022 54567
INTELSAT 28 (IS-28)     
1 37392U 11016A   26065.44489146 -.00000229  00000+0  00000+0 0  9994
2 37392   1.5405  83.9567 0004621 262.0273 306.6316  1.00272008 52253
YAHSAT 1A               
1 37393U 11016B   26065.59196247  .00000097  00000+0  00000+0 0  9990
2 37393   0.0051 140.8631 0003737 214.1431  74.8910  1.00271304 41374
SBIRS GEO-1 (USA 230)   
1 37481U 11019A   26065.16392161  .00000096  00000+0  00000+0 0  9996
2 37481   4.3097  53.0939 0002322 290.7052 290.9016  1.00272541 54368
TELSTAR 14R             
1 37602U 11021A   26065.78297667 -.00000283  00000+0  00000+0 0  9996
2 37602   0.0234 249.8663 0002392 104.4855  29.0140  1.00272494 54802
GSAT-8                  
1 37605U 11022A   26065.80646343  .00000082  00000+0  00000+0 0  9998
2 37605   1.8663  83.1264 0007140 216.5939 210.1807  1.00273406 52197
ST-2                    
1 37606U 11022B   26065.81296345 -.00000215  00000+0  00000+0 0  9992
2 37606   0.0129 213.3849 0001791 143.5372 188.2571  1.00274046 54251
